[{"OBJECT_NAME":"GEOEYE 1","OBJECT_ID":"2008-042A","EPOCH":"2026-03-09T21:23:49.829280","MEAN_MOTION":14.64767673,"ECCENTRICITY":0.00039854,"INCLINATION":98.1206,"RA_OF_ASC_NODE":144.0766,"ARG_OF_PERICENTER":27.9279,"MEAN_ANOMALY":332.2138,"EPHEMERIS_TYPE":0,"CLASSIFICATION_TYPE":"U","NORAD_CAT_ID":33331,"ELEMENT_SET_NO":999,"REV_AT_EPOCH":93561,"BSTAR":0.00013730387,"MEAN_MOTION_DOT":6.84e-6,"MEAN_MOTION_DDOT":0},{"OBJECT_NAME":"MACSAT 1 (M 1)","OBJECT_ID":"1990-043A","EPOCH":"2026-03-09T21:54:55.342656","MEAN_MOTION":14.75051497,"ECCENTRICITY":0.00891375,"INCLINATION":89.7412,"RA_OF_ASC_NODE":247.409,"ARG_OF_PERICENTER":352.5333,"MEAN_ANOMALY":7.4553,"EPHEMERIS_TYPE":0,"CLASSIFICATION_TYPE":"U","NORAD_CAT_ID":20607,"ELEMENT_SET_NO":999,"REV_AT_EPOCH":89974,"BSTAR":9.761876e-5,"MEAN_MOTION_DOT":7.18e-6,"MEAN_MOTION_DDOT":0}]
